NORAD_CAT_ID,OBJECT_NAME,OBJECT_TYPE,EPOCH,MEAN_MOTION,ECCENTRICITY,INCLINATION,RA_OF_ASC_NODE,ARG_OF_PERICENTER,MEAN_ANOMALY,BSTAR,MEAN_MOTION_DOT,MEAN_MOTION_DDOT,TLE_LINE0,TLE_LINE1,TLE_LINE2,SEMIMAJOR_AXIS,PERIOD,APOGEE,PERIGEE,DECAYED
53421.0,STARLINK-4545,PAYLOAD,2022-12-01 05:44:26,15.08842303,0.0001999,53.2195,76.2082,46.4597,313.6561,6.1075e-05,6.84e-06,0.0,0 STARLINK-4545,1 53421U 22097AK  22335.23919519  .00000684  00000-0  61075-4 0  9990,2 53421  53.2195  76.2082 0001999  46.4597 313.6561 15.08842303 17849,6917.873000000001,95.437,541.121,538.355,0.0
53421.0,STARLINK-4545,PAYLOAD,2022-12-01 13:41:22,15.08841739,0.0001843,53.2201,74.7217,32.2221,327.8884,5.3892e-05,5.700000000000001e-06,0.0,0 STARLINK-4545,1 53421U 22097AK  22335.57039676  .00000570  00000-0  53892-4 0  9996,2 53421  53.2201  74.7217 0001843  32.2221 327.8884 15.08841739 18359,6917.875,95.437,541.015,538.465,0.0
53421.0,STARLINK-4545,PAYLOAD,2022-12-01 23:13:41,15.08836538,0.0002,53.2185,72.9387,41.0447,319.0695,9.7556e-07,-2.73e-06,0.0,0 STARLINK-4545,1 53421U 22097AK  22335.96784203 -.00000273  00000-0  97556-6 0  9990,2 53421  53.2185  72.9387 0002000  41.0447 319.0695 15.08836538 17951,6917.891,95.438,541.14,538.372,0.0
53421.0,STARLINK-4545,PAYLOAD,2022-12-02 07:10:36,15.08840314,0.0001962,53.2191,71.4508,38.2242,321.8889,4.0985e-05,3.64e-06,0.0,0 STARLINK-4545,1 53421U 22097AK  22336.29903932  .00000364  00000-0  40985-4 0  9991,2 53421  53.2191  71.4508 0001962  38.2242 321.8889 15.08840314 18464,6917.879,95.438,541.102,538.387,0.0
53421.0,STARLINK-4545,PAYLOAD,2022-12-03 05:26:00,15.08843632,0.0002041,53.2201,67.2887,44.5965,315.5191,1.3318e-05,-7.6e-07,0.0,0 STARLINK-4545,1 53421U 22097AK  22337.22639847 -.00000076  00000-0  13318-4 0  9997,2 53421  53.2201  67.2887 0002041  44.5965 315.5191 15.08843632 18147,6917.869000000002,95.437,541.146,538.322,0.0
53421.0,STARLINK-4545,PAYLOAD,2022-12-03 13:22:56,15.08837758,0.0001945,53.2219,65.8031,47.665,312.4506,1.5028e-06,-2.64e-06,0.0,0 STARLINK-4545,1 53421U 22097AK  22337.55760309 -.00000264  00000-0  15028-5 0  9991,2 53421  53.2219  65.8031 0001945  47.6650 312.4506 15.08837758 18652,6917.887,95.438,541.0980000000002,538.4069999999998,0.0
53421.0,STARLINK-4545,PAYLOAD,2022-12-03 16:33:43,15.08836651,0.0002036,53.2205,65.208,38.4349,321.6788,-3.7067e-05,-8.78e-06,0.0,0 STARLINK-4545,1 53421U 22097AK  22337.69008537 -.00000878  00000-0 -37067-4 0  9992,2 53421  53.2205  65.2080 0002036  38.4349 321.6788 15.08836651 18217,6917.891,95.438,541.164,538.347,0.0
53421.0,STARLINK-4545,PAYLOAD,2022-12-04 11:38:21,15.08838053,0.0002031,53.2195,61.6382,38.5268,321.5869,1.8225e-07,-2.85e-06,0.0,0 STARLINK-4545,1 53421U 22097AK  22338.48496726 -.00000285  00000-0  18225-6 0  9999,2 53421  53.2195  61.6382 0002031  38.5268 321.5869 15.08838053 18796,6917.886,95.438,541.156,538.346,0.0
53421.0,STARLINK-4545,PAYLOAD,2022-12-04 17:59:53,15.08842129,0.0002042,53.2201,60.4488,50.1919,309.9253,6.7655e-05,7.89e-06,0.0,0 STARLINK-4545,1 53421U 22097AK  22338.74992357  .00000789  00000-0  67655-4 0  9996,2 53421  53.2201  60.4488 0002042  50.1919 309.9253 15.08842129 18834,6917.874,95.437,541.1519999999998,538.326,0.0
53421.0,STARLINK-4545,PAYLOAD,2022-12-04 22:46:02,15.08842835,0.0001995,53.22,59.557,40.1941,319.9199,0.00018033,2.583e-05,0.0,0 STARLINK-4545,1 53421U 22097AK  22338.94863850  .00002583  00000-0  18033-3 0  9992,2 53421  53.2200  59.5570 0001995  40.1941 319.9199 15.08842835 18401,6917.871999999999,95.437,541.117,538.357,0.0
53421.0,STARLINK-4545,PAYLOAD,2022-12-05 11:29:07,15.08841894,0.0002028,53.2203,57.1784,43.3139,316.8013,0.00014644,2.043e-05,0.0,0 STARLINK-4545,1 53421U 22097AK  22339.47856149  .00002043  00000-0  14644-3 0  9999,2 53421  53.2203  57.1784 0002028  43.3139 316.8013 15.08841894 18941,6917.875,95.437,541.143,538.337,0.0
53421.0,STARLINK-4545,PAYLOAD,2022-12-06 04:58:21,15.08847504,0.0001964,53.2189,53.9081,36.331,323.7815,0.00021471,3.131e-05,0.0,0 STARLINK-4545,1 53421U 22097AK  22340.20719302  .00003131  00000-0  21471-3 0  9996,2 53421  53.2189  53.9081 0001964  36.3310 323.7815 15.08847504 18591,6917.857,95.437,541.081,538.364,0.0
53421.0,STARLINK-4545,PAYLOAD,2022-12-06 11:19:55,15.08835618,0.0001884,53.2221,52.7195,33.5759,326.5352,3.9038e-05,3.33e-06,0.0,0 STARLINK-4545,1 53421U 22097AK  22340.47216617  .00000333  00000-0  39038-4 0  9996,2 53421  53.2221  52.7195 0001884  33.5759 326.5352 15.08835618 18633,6917.894,95.438,541.062,538.455,0.0
53421.0,STARLINK-4545,PAYLOAD,2022-12-06 16:06:05,15.08827626,0.0002104,53.2202,51.8263,39.2425,320.872,-6.6658e-05,-1.349e-05,0.0,0 STARLINK-4545,1 53421U 22097AK  22340.67089474 -.00001349  00000-0 -66658-4 0  9995,2 53421  53.2202  51.8263 0002104  39.2425 320.8720 15.08827626 19128,6917.918000000002,95.438,541.239,538.328,0.0
53421.0,STARLINK-4545,PAYLOAD,2022-12-07 15:56:52,15.08836507,0.0002338,53.2199,47.3679,38.1234,321.9923,-6.1082e-05,-1.26e-05,0.0,0 STARLINK-4545,1 53421U 22097AK  22341.66449314 -.00001260  00000-0 -61082-4 0  9996,2 53421  53.2199  47.3679 0002338  38.1234 321.9923 15.08836507 18819,6917.891,95.438,541.373,538.139,0.0
53421.0,STARLINK-4545,PAYLOAD,2022-12-08 04:39:56,15.08839503,0.0001924,53.2206,44.9867,32.8325,327.2787,8.0966e-05,1.001e-05,0.0,0 STARLINK-4545,1 53421U 22097AK  22342.19440558  .00001001  00000-0  80966-4 0  9999,2 53421  53.2206  44.9867 0001924  32.8325 327.2787 15.08839503 18896,6917.882,95.438,541.078,538.4159999999998,0.0
53421.0,STARLINK-4545,PAYLOAD,2022-12-08 11:01:28,15.08855666,0.0002617,53.2206,43.802,48.3467,311.7748,0.0001419,1.972e-05,0.0,0 STARLINK-4545,1 53421U 22097AK  22342.45935418  .00001972  00000-0  14190-3 0  9994,2 53421  53.2206  43.8020 0002617  48.3467 311.7748 15.08855666 19393,6917.833000000001,95.437,541.508,537.887,0.0
53421.0,STARLINK-4545,PAYLOAD,2022-12-09 04:30:43,15.08836855,0.0002306,53.2197,40.5312,36.993,323.1221,0.00015451,2.171e-05,0.0,0 STARLINK-4545,1 53421U 22097AK  22343.18800834  .00002171  00000-0  15451-3 0  9991,2 53421  53.2197  40.5312 0002306  36.9930 323.1221 15.08836855 19047,6917.89,95.438,541.35,538.16,0.0
53421.0,STARLINK-4545,PAYLOAD,2022-12-10 04:21:31,15.08834061,0.0002318,53.2206,36.0681,18.8234,341.2843,-9.8441e-06,-4.45e-06,0.0,0 STARLINK-4545,1 53421U 22097AK  22344.18161888 -.00000445  00000-0 -98441-5 0  9997,2 53421  53.2206  36.0681 0002318  18.8234 341.2843 15.08834061 19190,6917.899,95.438,541.367,538.16,0.0
53421.0,STARLINK-4545,PAYLOAD,2022-12-10 09:07:41,15.08839233,0.0002128,53.2211,35.1759,42.1557,317.9598,-8.515399999999999e-05,-1.643e-05,0.0,0 STARLINK-4545,1 53421U 22097AK  22344.38033762 -.00001643  00000-0 -85154-4 0  9995,2 53421  53.2211  35.1759 0002128  42.1557 317.9598 15.08839233 19686,6917.8830000000025,95.438,541.22,538.276,0.0
53421.0,STARLINK-4545,PAYLOAD,2022-12-11 02:36:55,15.08835237,0.0002116,53.2206,31.9033,42.1839,317.9316,0.00012771,1.745e-05,0.0,0 STARLINK-4545,1 53421U 22097AK  22345.10897341  .00001745  00000-0  12771-3 0  9992,2 53421  53.2206  31.9033 0002116  42.1839 317.9316 15.08835237 19339,6917.895,95.438,541.224,538.2959999999998,0.0
53421.0,STARLINK-4545,PAYLOAD,2022-12-11 10:33:51,15.08832628,0.0002074,53.2204,30.4179,36.7663,323.3471,7.5712e-05,9.17e-06,0.0,0 STARLINK-4545,1 53421U 22097AK  22345.44017731  .00000917  00000-0  75712-4 0  9991,2 53421  53.2204  30.4179 0002074  36.7663 323.3471 15.08832628 19849,6917.903,95.438,541.203,538.3330000000002,0.0
53421.0,STARLINK-4545,PAYLOAD,2022-12-12 04:03:05,15.08840876,0.0002135,53.2201,27.1455,41.1177,318.9976,8.7997e-05,1.113e-05,0.0,0 STARLINK-4545,1 53421U 22097AK  22346.16881466  .00001113  00000-0  87997-4 0  9992,2 53421  53.2201  27.1455 0002135  41.1177 318.9976 15.08840876 19499,6917.878000000002,95.437,541.22,538.266,0.0
53421.0,STARLINK-4545,PAYLOAD,2022-12-12 10:24:38,15.0883779,0.0002263,53.2201,25.9564,38.747,321.3684,5.9879e-05,6.65e-06,0.0,0 STARLINK-4545,1 53421U 22097AK  22346.43377806  .00000665  00000-0  59879-4 0  9999,2 53421  53.2201  25.9564 0002263  38.7470 321.3684 15.08837790 19996,6917.887,95.438,541.318,538.187,0.0
53421.0,STARLINK-4545,PAYLOAD,2022-12-13 08:40:01,15.08861187,0.0002501,53.2205,21.7943,34.3453,325.77,-0.00012518,-2.281e-05,0.0,0 STARLINK-4545,1 53421U 22097AK  22347.36112733 -.00002281  00000-0 -12518-3 0  9994,2 53421  53.2205  21.7943 0002501  34.3453 325.7700 15.08861187 19672,6917.816,95.436,541.411,537.95,0.0
53421.0,STARLINK-4545,PAYLOAD,2022-12-13 11:50:48,15.08842086,0.0002266,53.2219,21.201,40.8692,319.247,2.3656e-05,8.8e-07,0.0,0 STARLINK-4545,1 53421U 22097AK  22347.49361544  .00000088  00000-0  23656-4 0  9991,2 53421  53.2219  21.2010 0002266  40.8692 319.2470 15.08842086 20156,6917.874,95.437,541.307,538.1709999999998,0.0
53421.0,STARLINK-4545,PAYLOAD,2022-12-14 11:41:35,15.08842028,0.0002393,53.2208,16.7404,37.9162,322.1998,0.0001041,1.369e-05,0.0,0 STARLINK-4545,1 53421U 22097AK  22348.48721434  .00001369  00000-0  10410-3 0  9995,2 53421  53.2208  16.7404 0002393  37.9162 322.1998 15.08842028 20301,6917.874,95.437,541.395,538.0840000000002,0.0
53421.0,STARLINK-4545,PAYLOAD,2022-12-14 19:38:31,15.08839289,0.0002338,53.2205,15.2522,39.8649,320.2514,3.4672e-05,2.64e-06,0.0,0 STARLINK-4545,1 53421U 22097AK  22348.81841772  .00000264  00000-0  34672-4 0  9990,2 53421  53.2205  15.2522 0002338  39.8649 320.2514 15.08839289 20356,6917.8830000000025,95.438,541.365,538.13,0.0
53421.0,STARLINK-4545,PAYLOAD,2022-12-15 11:32:22,15.08838459,0.0002559,53.2191,12.2799,32.3884,327.7265,-6.1657e-07,-2.98e-06,0.0,0 STARLINK-4545,1 53421U 22097AK  22349.48081896 -.00000298  00000-0 -61657-6 0  9991,2 53421  53.2191  12.2799 0002559  32.3884 327.7265 15.08838459 20451,6917.885,95.438,541.52,537.98,0.0
